{"type": "FeatureCollection", "features": [ {"type": "Feature", "properties": {"norad_id": 28659, "name": "DIRECTV 8", "group": "intelsat", "lat": 0.03790376444085209, "lon": 69.24336144702143, "alt_km": 35799.905826711816, "timestamp": "2025-12-04T07:39:35.837904+00:00", "meta": {"OBJECT_NAME": "DIRECTV 8", "OBJECT_ID": "2005-019A", "EPOCH": "2025-12-03T13:11:23.970336", "MEAN_MOTION": 1.00271387, "ECCENTRICITY": 0.00033169, "INCLINATION": 0.0159, "RA_OF_ASC_NODE": 313.723, "ARG_OF_PERICENTER": 307.4346, "MEAN_ANOMALY": 250.2929, "EPHEMERIS_TYPE": 0, "CLASSIFICATION_TYPE": "U", "NORAD_CAT_ID": 28659, "ELEMENT_SET_NO": 999, "REV_AT_EPOCH": 7511, "BSTAR": 0, "MEAN_MOTION_DOT": 1.9e-07, "MEAN_MOTION_DDOT": 0}, "tle": {"line1": "1 28659U 05019A   25337.54958299  .00000019  00000+0  00000+0 0  9994", "line2": "2 28659   0.0159 313.7230 0003316 307.4346 250.2929  1.00271387 75118"}}, "geometry": {"type": "Point", "coordinates": [69.24336144702143, 0.03790376444085209]}}, {"type": "Feature", "properties": {"norad_id": 28702, "name": "GALAXY 28 (G-28)", "group": "intelsat", "lat": 0.8930204866568662, "lon": 99.5428621131941, "alt_km": 35795.744910355985, "timestamp": "2025-12-04T07:39:35.837915+00:00", "meta": {"OBJECT_NAME": "GALAXY 28 (G-28)", "OBJECT_ID": "2005-022A", "EPOCH": "2025-12-03T13:20:00.645792", "MEAN_MOTION": 1.00272256, "ECCENTRICITY": 0.00026419, "INCLINATION": 2.7952, "RA_OF_ASC_NODE": 81.3879, "ARG_OF_PERICENTER": 169.944, "MEAN_ANOMALY": 292.6137, "EPHEMERIS_TYPE": 0, "CLASSIFICATION_TYPE": "U", "NORAD_CAT_ID": 28702, "ELEMENT_SET_NO": 999, "REV_AT_EPOCH": 5001, "BSTAR": 0, "MEAN_MOTION_DOT": -1.7e-06, "MEAN_MOTION_DDOT": 0}, "tle": {"line1": "1 28702U 05022A   25337.55556303 -.00000170  00000+0  00000+0 0  9997", "line2": "2 28702   2.7952  81.3879 0002641 169.9440 292.6137  1.00272256 50019"}}, "geometry": {"type": "Point", "coordinates": [99.5428621131941, 0.8930204866568662]}}, {"type": "Feature", "properties": {"norad_id": 29236, "name": "GALAXY 16 (G-16)", "group": "intelsat", "lat": 0.004719806175700751, "lon": 89.25053367564632, "alt_km": 35798.5333604124, "timestamp": "2025-12-04T07:39:35.837925+00:00", "meta": {"OBJECT_NAME": "GALAXY 16 (G-16)", "OBJECT_ID": "2006-023A", "EPOCH": "2025-12-03T13:17:08.421216", "MEAN_MOTION": 1.00270132, "ECCENTRICITY": 0.00029062, "INCLINATION": 0.0242, "RA_OF_ASC_NODE": 220.5298, "ARG_OF_PERICENTER": 35.0993, "MEAN_ANOMALY": 277.2871, "EPHEMERIS_TYPE": 0, "CLASSIFICATION_TYPE": "U", "NORAD_CAT_ID": 29236, "ELEMENT_SET_NO": 999, "REV_AT_EPOCH": 7101, "BSTAR": 0, "MEAN_MOTION_DOT": -1.09e-06, "MEAN_MOTION_DDOT": 0}, "tle": {"line1": "1 29236U 06023A   25337.55356969 -.00000109  00000+0  00000+0 0  9990", "line2": "2 29236   0.0242 220.5298 0002906  35.0993 277.2871  1.00270132 71015"}}, "geometry": {"type": "Point", "coordinates": [89.25053367564632, 0.004719806175700751]}}, {"type": "Feature", "properties": {"norad_id": 29494, "name": "DIRECTV 9S", "group": "intelsat", "lat": 0.1490506544500355, "lon": 87.0565834670339, "alt_km": 35799.519520922884, "timestamp": "2025-12-04T07:39:35.837936+00:00", "meta": {"OBJECT_NAME": "DIRECTV 9S", "OBJECT_ID": "2006-043A", "EPOCH": "2025-12-03T13:16:30.980640", "MEAN_MOTION": 1.00270563, "ECCENTRICITY": 0.00032023, "INCLINATION": 1.9146, "RA_OF_ASC_NODE": 83.3064, "ARG_OF_PERICENTER": 168.5637, "MEAN_ANOMALY": 278.6961, "EPHEMERIS_TYPE": 0, "CLASSIFICATION_TYPE": "U", "NORAD_CAT_ID": 29494, "ELEMENT_SET_NO": 999, "REV_AT_EPOCH": 4942, "BSTAR": 0, "MEAN_MOTION_DOT": -9.6e-07, "MEAN_MOTION_DDOT": 0}, "tle": {"line1": "1 29494U 06043A   25337.55313635 -.00000096  00000+0  00000+0 0  9996", "line2": "2 29494   1.9146  83.3064 0003202 168.5637 278.6961  1.00270563 49420"}}, "geometry": {"type": "Point", "coordinates": [87.0565834670339, 0.1490506544500355]}}, {"type": "Feature", "properties": {"norad_id": 31307, "name": "GALAXY 17 (G-17)", "group": "intelsat", "lat": 0.9001761848332025, "lon": 103.20871834287813, "alt_km": 35805.060283406965, "timestamp": "2025-12-04T07:39:35.837946+00:00", "meta": {"OBJECT_NAME": "GALAXY 17 (G-17)", "OBJECT_ID": "2007-016B", "EPOCH": "2025-12-03T13:21:08.037792", "MEAN_MOTION": 1.0027041, "ECCENTRICITY": 0.00061106, "INCLINATION": 2.475, "RA_OF_ASC_NODE": 82.3897, "ARG_OF_PERICENTER": 156.8173, "MEAN_ANOMALY": 308.7234, "EPHEMERIS_TYPE": 0, "CLASSIFICATION_TYPE": "U", "NORAD_CAT_ID": 31307, "ELEMENT_SET_NO": 999, "REV_AT_EPOCH": 6784, "BSTAR": 0, "MEAN_MOTION_DOT": -1.89e-06, "MEAN_MOTION_DDOT": 0}, "tle": {"line1": "1 31307U 07016B   25337.55634303 -.00000189  00000+0  00000+0 0  9994", "line2": "2 31307   2.4750  82.3897 0006110 156.8173 308.7234  1.00270410 67847"}}, "geometry": {"type": "Point", "coordinates": [103.20871834287813, 0.9001761848332025]}}, {"type": "Feature", "properties": {"norad_id": 31862, "name": "DIRECTV 10", "group": "intelsat", "lat": -0.008951873492828161, "lon": 85.476742867603, "alt_km": 35786.51656636067, "timestamp": "2025-12-04T07:39:35.837957+00:00", "meta": {"OBJECT_NAME": "DIRECTV 10", "OBJECT_ID": "2007-032A", "EPOCH": "2025-12-03T13:16:01.028352", "MEAN_MOTION": 1.00272155, "ECCENTRICITY": 3.391e-05, "INCLINATION": 0.0122, "RA_OF_ASC_NODE": 175.5522, "ARG_OF_PERICENTER": 21.3057, "MEAN_ANOMALY": 331.993, "EPHEMERIS_TYPE": 0, "CLASSIFICATION_TYPE": "U", "NORAD_CAT_ID": 31862, "ELEMENT_SET_NO": 999, "REV_AT_EPOCH": 4363, "BSTAR": 0, "MEAN_MOTION_DOT": -8.5e-07, "MEAN_MOTION_DDOT": 0}, "tle": {"line1": "1 31862U 07032A   25337.55278968 -.00000085  00000+0  00000+0 0  9994", "line2": "2 31862   0.0122 175.5522 0000339  21.3057 331.9930  1.00272155 43634"}}, "geometry": {"type": "Point", "coordinates": [85.476742867603, -0.008951873492828161]}}, {"type": "Feature", "properties": {"norad_id": 32253, "name": "INTELSAT 11 (IS-11)", "group": "intelsat", "lat": 0.5499872235901853, "lon": 90.9841233197513, "alt_km": 36167.72742160619, "timestamp": "2025-12-04T07:39:35.837967+00:00", "meta": {"OBJECT_NAME": "INTELSAT 11 (IS-11)", "OBJECT_ID": "2007-044B", "EPOCH": "2025-12-03T19:30:38.707200", "MEAN_MOTION": 0.99047231, "ECCENTRICITY": 0.00092849, "INCLINATION": 3.0552, "RA_OF_ASC_NODE": 81.0766, "ARG_OF_PERICENTER": 161.357, "MEAN_ANOMALY": 28.1289, "EPHEMERIS_TYPE": 0, "CLASSIFICATION_TYPE": "U", "NORAD_CAT_ID": 32253, "ELEMENT_SET_NO": 999, "REV_AT_EPOCH": 6651, "BSTAR": 0, "MEAN_MOTION_DOT": 1.4e-07, "MEAN_MOTION_DDOT": 0}, "tle": {"line1": "1 32253U 07044B   25337.81294800  .00000014  00000+0  00000+0 0  9995", "line2": "2 32253   3.0552  81.0766 0009284 161.3570  28.1289  0.99047231 66519"}}, "geometry": {"type": "Point", "coordinates": [90.9841233197513, 0.5499872235901853]}}, {"type": "Feature", "properties": {"norad_id": 32388, "name": "HORIZONS-2", "group": "intelsat", "lat": 1.1076004934912511, "lon": 114.445993838895, "alt_km": 35804.1315720166, "timestamp": "2025-12-04T07:39:35.837978+00:00", "meta": {"OBJECT_NAME": "HORIZONS-2", "OBJECT_ID": "2007-063B", "EPOCH": "2025-12-03T13:24:15.239808", "MEAN_MOTION": 1.0027201, "ECCENTRICITY": 0.000498, "INCLINATION": 2.0959, "RA_OF_ASC_NODE": 83.0611, "ARG_OF_PERICENTER": 181.0664, "MEAN_ANOMALY": 295.7978, "EPHEMERIS_TYPE": 0, "CLASSIFICATION_TYPE": "U", "NORAD_CAT_ID": 32388, "ELEMENT_SET_NO": 999, "REV_AT_EPOCH": 6585, "BSTAR": 0, "MEAN_MOTION_DOT": -2.36e-06, "MEAN_MOTION_DDOT": 0}, "tle": {"line1": "1 32388U 07063B   25337.55850972 -.00000236  00000+0  00000+0 0  9991", "line2": "2 32388   2.0959  83.0611 0004980 181.0664 295.7978  1.00272010 65851"}}, "geometry": {"type": "Point", "coordinates": [114.445993838895, 1.1076004934912511]}}, {"type": "Feature", "properties": {"norad_id": 32729, "name": "DIRECTV 11", "group": "intelsat", "lat": -0.005413864696888885, "lon": 89.07841413286697, "alt_km": 35787.02955766515, "timestamp": "2025-12-04T07:39:35.837988+00:00", "meta": {"OBJECT_NAME": "DIRECTV 11", "OBJECT_ID": "2008-013A", "EPOCH": "2025-12-03T13:17:00.932928", "MEAN_MOTION": 1.00271645, "ECCENTRICITY": 5.575e-05, "INCLINATION": 0.0189, "RA_OF_ASC_NODE": 148.0533, "ARG_OF_PERICENTER": 52.939, "MEAN_ANOMALY": 331.7143, "EPHEMERIS_TYPE": 0, "CLASSIFICATION_TYPE": "U", "NORAD_CAT_ID": 32729, "ELEMENT_SET_NO": 999, "REV_AT_EPOCH": 4363, "BSTAR": 0, "MEAN_MOTION_DOT": -1.08e-06, "MEAN_MOTION_DDOT": 0}, "tle": {"line1": "1 32729U 08013A   25337.55348302 -.00000108  00000+0  00000+0 0  9993", "line2": "2 32729   0.0189 148.0533 0000557  52.9390 331.7143  1.00271645 43636"}}, "geometry": {"type": "Point", "coordinates": [89.07841413286697, -0.005413864696888885]}}, {"type": "Feature", "properties": {"norad_id": 32951, "name": "GALAXY 18 (G-18)", "group": "intelsat", "lat": 0.036321772585211506, "lon": 65.29149476529385, "alt_km": 35799.79753744029, "timestamp": "2025-12-04T07:39:35.837999+00:00", "meta": {"OBJECT_NAME": "GALAXY 18 (G-18)", "OBJECT_ID": "2008-024A", "EPOCH": "2025-12-03T13:10:16.578336", "MEAN_MOTION": 1.00272732, "ECCENTRICITY": 0.00033926, "INCLINATION": 0.0183, "RA_OF_ASC_NODE": 7.1741, "ARG_OF_PERICENTER": 250.7376, "MEAN_ANOMALY": 249.3008, "EPHEMERIS_TYPE": 0, "CLASSIFICATION_TYPE": "U", "NORAD_CAT_ID": 32951, "ELEMENT_SET_NO": 999, "REV_AT_EPOCH": 4389, "BSTAR": 0, "MEAN_MOTION_DOT": 4.3e-07, "MEAN_MOTION_DDOT": 0}, "tle": {"line1": "1 32951U 08024A   25337.54880299  .00000043  00000+0  00000+0 0  9994", "line2": "2 32951   0.0183   7.1741 0003392 250.7376 249.3008  1.00272732 43895"}}, "geometry": {"type": "Point", "coordinates": [65.29149476529385, 0.036321772585211506]}}]}